NORAD_CAT_ID,OBJECT_NAME,OBJECT_TYPE,EPOCH,MEAN_MOTION,ECCENTRICITY,INCLINATION,RA_OF_ASC_NODE,ARG_OF_PERICENTER,MEAN_ANOMALY,BSTAR,MEAN_MOTION_DOT,MEAN_MOTION_DDOT,TLE_LINE0,TLE_LINE1,TLE_LINE2,SEMIMAJOR_AXIS,PERIOD,APOGEE,PERIGEE,DECAYED
51979.0,STARLINK-3656,PAYLOAD,2022-09-19 10:48:08,15.08843342,0.0001624,53.2187,327.9918,63.3815,296.7344,0.00014998,2.1e-05,0.0,0 STARLINK-3656,1 51979U 22025Z   22262.45010242  .00002100  00000-0  14998-3 0  9991,2 51979  53.2187 327.9918 0001624  63.3815 296.7344 15.08843342 29753,6917.87,95.437,540.859,538.612,0.0
51979.0,STARLINK-3656,PAYLOAD,2022-09-20 12:14:19,15.08840677,0.0001766999999999,53.2185,323.2344,60.4731,299.6437,-4.7225e-05,-1.04e-05,0.0,0 STARLINK-3656,1 51979U 22025Z   22263.50994899 -.00001040  00000-0 -47225-4 0  9991,2 51979  53.2185 323.2344 0001767  60.4731 299.6437 15.08840677 31022,6917.878000000002,95.438,540.966,538.521,0.0
51979.0,STARLINK-3656,PAYLOAD,2022-09-21 08:54:20,15.08839808,0.0002133,53.2176,319.3714,50.3556,309.7624,2.9566e-05,1.82e-06,0.0,0 STARLINK-3656,1 51979U 22025Z   22264.37106640  .00000182  00000-0  29566-4 0  9998,2 51979  53.2176 319.3714 0002133  50.3556 309.7624 15.08839808 30046,6917.880999999999,95.438,541.222,538.27,0.0
51979.0,STARLINK-3656,PAYLOAD,2022-09-22 10:20:30,15.08837857,0.0001784,53.2182,314.6116,63.839,296.2785,4.679100000000001e-05,4.57e-06,0.0,0 STARLINK-3656,1 51979U 22025Z   22265.43090667  .00000457  00000-0  46791-4 0  9991,2 51979  53.2182 314.6116 0001784  63.8390 296.2785 15.08837857 30201,6917.887,95.438,540.986,538.518,0.0
51979.0,STARLINK-3656,PAYLOAD,2022-09-23 10:11:17,15.08841119,0.0001495,53.2163,310.1487,41.1634,318.9471,4.7213e-06,-2.13e-06,0.0,0 STARLINK-3656,1 51979U 22025Z   22266.42450670 -.00000213  00000-0  47213-5 0  9997,2 51979  53.2163 310.1487 0001495  41.1634 318.9471 15.08841119 30357,6917.877,95.437,540.776,538.7080000000002,0.0
51979.0,STARLINK-3656,PAYLOAD,2022-09-23 19:43:36,15.08839746,0.0001547,53.2165,308.3643,41.595,318.516,6.392e-05,7.29e-06,0.0,0 STARLINK-3656,1 51979U 22025Z   22266.82194568  .00000729  00000-0  63920-4 0  9995,2 51979  53.2165 308.3643 0001547  41.5950 318.5160 15.08839746 31529,6917.880999999999,95.438,540.816,538.6759999999998,0.0
51979.0,STARLINK-3656,PAYLOAD,2022-09-24 10:02:04,15.08833077,0.00016,53.2172,305.688,41.3404,318.7709,1.3666e-05,-7.1e-07,0.0,0 STARLINK-3656,1 51979U 22025Z   22267.41811262 -.00000071  00000-0  13666-4 0  9991,2 51979  53.2172 305.6880 0001600  41.3404 318.7709 15.08833077 30501,6917.901999999999,95.438,540.873,538.66,0.0
51979.0,STARLINK-3656,PAYLOAD,2022-09-25 09:52:51,15.08845441,0.0001608,53.2175,301.228,45.9777,314.1347,8.745299999999999e-05,1.104e-05,0.0,0 STARLINK-3656,1 51979U 22025Z   22268.41170367  .00001104  00000-0  87453-4 0  9998,2 51979  53.2175 301.2280 0001608  45.9777 314.1347 15.08845441 31766,6917.864000000001,95.437,540.841,538.616,0.0
51979.0,STARLINK-3656,PAYLOAD,2022-09-26 06:32:52,15.08848085,0.0001654,53.2179,297.3629,49.9002,310.2135,-0.00013628,-2.457e-05,0.0,0 STARLINK-3656,1 51979U 22025Z   22269.27282765 -.00002457  00000-0 -13628-3 0  9995,2 51979  53.2179 297.3629 0001654  49.9002 310.2135 15.08848085 31891,6917.856,95.437,540.865,538.576,0.0
51979.0,STARLINK-3656,PAYLOAD,2022-09-26 09:43:39,15.08826911,0.0001279,53.2169,296.7701,52.4191,307.6917,-7.8229e-06,-4.12e-06,0.0,0 STARLINK-3656,1 51979U 22025Z   22269.40531790 -.00000412  00000-0 -78229-5 0  9994,2 51979  53.2169 296.7701 0001279  52.4191 307.6917 15.08826911 30807,6917.92,95.438,540.67,538.901,0.0
51979.0,STARLINK-3656,PAYLOAD,2022-09-26 19:15:58,15.08828489,0.0001613,53.2176,294.9856,46.5553,313.5573,-2.6697e-05,-7.13e-06,0.0,0 STARLINK-3656,1 51979U 22025Z   22269.80276114 -.00000713  00000-0 -26697-4 0  9999,2 51979  53.2176 294.9856 0001613  46.5553 313.5573 15.08828489 30866,6917.916,95.438,540.896,538.665,0.0
51979.0,STARLINK-3656,PAYLOAD,2022-09-27 09:34:26,15.08837861,0.0001703,53.2176,292.3091,45.8924,314.2208,-2.0474e-05,-6.14e-06,0.0,0 STARLINK-3656,1 51979U 22025Z   22270.39891783 -.00000614  00000-0 -20474-4 0  9997,2 51979  53.2176 292.3091 0001703  45.8924 314.2208 15.08837861 32064,6917.887,95.438,540.93,538.5740000000002,0.0
51979.0,STARLINK-3656,PAYLOAD,2022-09-28 04:39:03,15.08840532,0.0001635,53.2171,288.7408,46.29600000000001,313.8167,0.00019802,2.865e-05,0.0,0 STARLINK-3656,1 51979U 22025Z   22271.19378892  .00002865  00000-0  19802-3 0  9997,2 51979  53.2171 288.7408 0001635  46.2960 313.8167 15.08840532 32180,6917.879,95.438,540.875,538.613,0.0
51979.0,STARLINK-3656,PAYLOAD,2022-09-28 07:49:49,15.0884462,0.0001729,53.2172,288.1461,47.9509,312.163,0.00024218,3.569e-05,0.0,0 STARLINK-3656,1 51979U 22025Z   22271.32626659  .00003569  00000-0  24218-3 0  9998,2 51979  53.2172 288.1461 0001729  47.9509 312.1630 15.08844620 31093,6917.866,95.437,540.927,538.535,0.0
51979.0,STARLINK-3656,PAYLOAD,2022-09-29 10:51:24,15.08823647,0.0001808,53.2167,283.0908,49.4973,310.6176,-0.00012694,-2.307e-05,0.0,0 STARLINK-3656,1 51979U 22025Z   22272.45237075 -.00002307  00000-0 -12694-3 0  9999,2 51979  53.2167 283.0908 0001808  49.4973 310.6176 15.08823647 32373,6917.93,95.439,541.0459999999998,538.545,0.0
51979.0,STARLINK-3656,PAYLOAD,2022-09-30 01:09:53,15.08830735,0.00018,53.2167,280.4147,53.1844,306.9313,-0.00011561,-2.127e-05,0.0,0 STARLINK-3656,1 51979U 22025Z   22273.04853252 -.00002127  00000-0 -11561-3 0  9998,2 51979  53.2167 280.4147 0001800  53.1844 306.9313 15.08830735 32467,6917.909000000002,95.438,541.019,538.528,0.0
51979.0,STARLINK-3656,PAYLOAD,2022-09-30 07:31:25,15.08833859,0.0001853,53.2165,279.2249,52.2903,307.8257,-7.2583e-05,-1.443e-05,0.0,0 STARLINK-3656,1 51979U 22025Z   22273.31349124 -.00001443  00000-0 -72583-4 0  9998,2 51979  53.2165 279.2249 0001853  52.2903 307.8257 15.08833859 31396,6917.899,95.438,541.0459999999998,538.482,0.0
51979.0,STARLINK-3656,PAYLOAD,2022-09-30 17:03:44,15.08841401,0.0001685,53.2169,277.4403,58.4229,301.6928,-1.6737e-05,-5.54e-06,0.0,0 STARLINK-3656,1 51979U 22025Z   22273.71092620 -.00000554  00000-0 -16737-4 0  9999,2 51979  53.2169 277.4403 0001685  58.4229 301.6928 15.08841401 32563,6917.876,95.437,540.9069999999998,538.575,0.0
51979.0,STARLINK-3656,PAYLOAD,2022-10-01 04:11:27,15.08815361,0.0002029999999999,53.2164,275.3586,60.3497,299.7697,0.00058784,9.074e-05,0.0,0 STARLINK-3656,1 51979U 22025Z   22274.17462330  .00009074  00000-0  58784-3 0  9990,2 51979  53.2164 275.3586 0002030  60.3497 299.7697 15.08815361 32635,6917.956,95.439,541.225,538.4159999999998,0.0
51979.0,STARLINK-3656,PAYLOAD,2022-10-01 07:22:12,15.088350899999998,0.0001875999999999,53.2164,274.764,54.6403,305.4764,8.3337e-05,1.038e-05,0.0,0 STARLINK-3656,1 51979U 22025Z   22274.30709368  .00001038  00000-0  83337-4 0  9995,2 51979  53.2164 274.7640 0001876  54.6403 305.4764 15.08835090 31549,6917.895,95.438,541.058,538.4630000000002,0.0
51979.0,STARLINK-3656,PAYLOAD,2022-10-01 16:54:32,15.0883774,0.0001948,53.2169,272.9799,57.9404,302.1778,0.00037346,5.660000000000003e-05,0.0,0 STARLINK-3656,1 51979U 22025Z   22274.70453770  .00005660  00000-0  37346-3 0  9995,2 51979  53.2169 272.9799 0001948  57.9404 302.1778 15.08837740 31606,6917.887,95.438,541.1,538.405,0.0
51979.0,STARLINK-3656,PAYLOAD,2022-10-02 07:12:59,15.08854627,0.0001889,53.2165,270.3034,60.3262,299.7918,0.00054386,8.382e-05,0.0,0 STARLINK-3656,1 51979U 22025Z   22275.30069139  .00008382  00000-0  54386-3 0  9991,2 51979  53.2165 270.3034 0001889  60.3262 299.7918 15.08854627 31699,6917.8359999999975,95.437,541.007,538.394,0.0
51979.0,STARLINK-3656,PAYLOAD,2022-10-02 16:45:18,15.08847454,0.0001868,53.2157,268.5175,58.1223,301.9951,0.00020662,3.002e-05,0.0,0 STARLINK-3656,1 51979U 22025Z   22275.69813144  .00003002  00000-0  20662-3 0  9990,2 51979  53.2157 268.5175 0001868  58.1223 301.9951 15.08847454 32867,6917.858,95.437,541.015,538.43,0.0
51979.0,STARLINK-3656,PAYLOAD,2022-10-03 03:52:59,15.08864633,0.0001838,53.2161,266.4368,59.9782,300.1392,0.00065499,0.00010158,0.0,0 STARLINK-3656,1 51979U 22025Z   22276.16180511  .00010158  00000-0  65499-3 0  9995,2 51979  53.2161 266.4368 0001838  59.9782 300.1392 15.08864633 32935,6917.805,95.436,540.942,538.399,0.0
51979.0,STARLINK-3656,PAYLOAD,2022-10-03 08:39:09,15.08871368,0.0001855,53.2158,265.5449,59.5626,300.5549,0.0010081,0.00015806,0.0,0 STARLINK-3656,1 51979U 22025Z   22276.36052199  .00015806  00000-0  10081-2 0  9998,2 51979  53.2158 265.5449 0001855  59.5626 300.5549 15.08871368 31854,6917.785,95.436,540.933,538.366,0.0
51979.0,STARLINK-3656,PAYLOAD,2022-10-03 16:36:04,15.08863952,0.000192,53.2156,264.0579,59.8894,300.2289,0.0005334,8.217e-05,0.0,0 STARLINK-3656,1 51979U 22025Z   22276.69171910  .00008217  00000-0  53340-3 0  9991,2 51979  53.2156 264.0579 0001920  59.8894 300.2289 15.08863952 31907,6917.807,95.436,541.0,538.344,0.0
51979.0,STARLINK-3656,PAYLOAD,2022-10-04 08:29:55,15.08857937,0.0001736,53.2162,261.0841,60.422,299.6945,0.00016852,2.396e-05,0.0,0 STARLINK-3656,1 51979U 22025Z   22277.35411232  .00002396  00000-0  16852-3 0  9998,2 51979  53.2162 261.0841 0001736  60.4220 299.6945 15.08857937 32007,6917.826,95.436,540.891,538.49,0.0
51979.0,STARLINK-3656,PAYLOAD,2022-10-04 16:26:51,15.08850497,0.0001739,53.2158,259.5974,58.2087,301.9074,3.3438e-05,2.44e-06,0.0,0 STARLINK-3656,1 51979U 22025Z   22277.68531300  .00000244  00000-0  33438-4 0  9993,2 51979  53.2158 259.5974 0001739  58.2087 301.9074 15.08850497 33162,6917.848000000001,95.437,540.9159999999998,538.51,0.0
51979.0,STARLINK-3656,PAYLOAD,2022-10-05 09:56:05,15.08848172,0.0001718,53.2168,256.3257,53.7461,306.3689,-6.3792e-05,-1.303e-05,0.0,0 STARLINK-3656,1 51979U 22025Z   22278.41395525 -.00001303  00000-0 -63792-4 0  9997,2 51979  53.2168 256.3257 0001718  53.7461 306.3689 15.08848172 32162,6917.855,95.437,540.909,538.5319999999998,0.0
